start=new Date('2023-01-30T00:00:00.000Z').valueOf();
sats=[{"REF_FRAME":"TEME","INCLINATION":"53.2177","APOAPSIS":"540.683","SITE":"AFETR","FILE":"3765015","RA_OF_ASC_NODE":"168.5761","TIME_SYSTEM":"UTC","CENTER_NAME":"EARTH","MEAN_ELEMENT_THEORY":"SGP4","TLE_LINE2":"2 53419  53.2177 168.5761 0001358  94.0396 266.0752 15.08840574 27303","OBJECT_ID":"2022-097AH","SEMIMAJOR_AXIS":"6917.879","REV_AT_EPOCH":"2730","NORAD_CAT_ID":"53419","LAUNCH_DATE":"2022-08-10","EPOCH":"2023-01-29T20:36:53.769024","DECAY_DATE":null,"PERIAPSIS":"538.804","ARG_OF_PERICENTER":"94.0396","COUNTRY_CODE":"US","PERIOD":"95.438","MEAN_MOTION_DOT":"0.00000977","MEAN_MOTION":"15.08840574","BSTAR":"0.00007943800000","ELEMENT_SET_NO":"999","GP_ID":"223958785","ECCENTRICITY":"0.00013580","TLE_LINE1":"1 53419U 22097AH  23029.85895566  .00000977  00000-0  79438-4 0  9998","OBJECT_NAME":"STARLINK-4476","EPHEMERIS_TYPE":"0","MEAN_ANOMALY":"266.0752","CLASSIFICATION_TYPE":"U","OBJECT_TYPE":"PAYLOAD","RCS_SIZE":"LARGE","MEAN_MOTION_DDOT":"0.0000000000000"},{"ELEMENT_SET_NO":"999","GP_ID":"223959034","BSTAR":"0.00001309800000","MEAN_MOTION":"15.08835320","MEAN_MOTION_DOT":"-0.00000079","PERIOD":"95.438","COUNTRY_CODE":"US","MEAN_MOTION_DDOT":"0.0000000000000","RCS_SIZE":"LARGE","OBJECT_TYPE":"PAYLOAD","CLASSIFICATION_TYPE":"U","EPHEMERIS_TYPE":"0","MEAN_ANOMALY":"277.4936","OBJECT_NAME":"STARLINK-4552","TLE_LINE1":"1 53420U 22097AJ  23029.64920144 -.00000079  00000-0  13098-4 0  9992","ECCENTRICITY":"0.00013230","CENTER_NAME":"EARTH","MEAN_ELEMENT_THEORY":"SGP4","TIME_SYSTEM":"UTC","RA_OF_ASC_NODE":"169.5229","FILE":"3765015","SITE":"AFETR","APOAPSIS":"540.675","INCLINATION":"53.2174","REF_FRAME":"TEME","ARG_OF_PERICENTER":"82.6207","PERIAPSIS":"538.844","DECAY_DATE":null,"EPOCH":"2023-01-29T15:34:51.004416","LAUNCH_DATE":"2022-08-10","NORAD_CAT_ID":"53420","SEMIMAJOR_AXIS":"6917.895","REV_AT_EPOCH":"2727","TLE_LINE2":"2 53420  53.2174 169.5229 0001323  82.6207 277.4936 15.08835320 27277","OBJECT_ID":"2022-097AJ"},{"SITE":"AFETR","FILE":"3765015","MEAN_ELEMENT_THEORY":"SGP4","TIME_SYSTEM":"UTC","CENTER_NAME":"EARTH","RA_OF_ASC_NODE":"169.1875","APOAPSIS":"540.582","INCLINATION":"53.2182","REF_FRAME":"TEME","DECAY_DATE":null,"ARG_OF_PERICENTER":"97.3563","PERIAPSIS":"538.937","SEMIMAJOR_AXIS":"6917.895","REV_AT_EPOCH":"2728","TLE_LINE2":"2 53421  53.2182 169.1875 0001189  97.3563 262.7564 15.08835331 27285","OBJECT_ID":"2022-097AK","LAUNCH_DATE":"2022-08-10","NORAD_CAT_ID":"53421","EPOCH":"2023-01-29T17:20:50.100576","MEAN_MOTION":"15.08835331","BSTAR":"0.00002358800000","ELEMENT_SET_NO":"999","GP_ID":"223959780","COUNTRY_CODE":"US","PERIOD":"95.438","MEAN_MOTION_DOT":"0.00000088","OBJECT_TYPE":"PAYLOAD","RCS_SIZE":"LARGE","MEAN_MOTION_DDOT":"0.0000000000000","ECCENTRICITY":"0.00011890","OBJECT_NAME":"STARLINK-4545","TLE_LINE1":"1 53421U 22097AK  23029.72280209  .00000088  00000-0  23588-4 0  9997","CLASSIFICATION_TYPE":"U","EPHEMERIS_TYPE":"0","MEAN_ANOMALY":"262.7564"},{"MEAN_MOTION_DDOT":"0.0000000000000","OBJECT_TYPE":"PAYLOAD","RCS_SIZE":"LARGE","OBJECT_NAME":"STARLINK-4546","TLE_LINE1":"1 53422U 22097AL  23029.64184280  .00000169  00000-0  28717-4 0  9990","CLASSIFICATION_TYPE":"U","EPHEMERIS_TYPE":"0","MEAN_ANOMALY":"278.4962","ECCENTRICITY":"0.00014770","ELEMENT_SET_NO":"999","GP_ID":"223960525","BSTAR":"0.00002871700000","MEAN_MOTION":"15.08835832","PERIOD":"95.438","MEAN_MOTION_DOT":"0.00000169","COUNTRY_CODE":"US","ARG_OF_PERICENTER":"81.6197","PERIAPSIS":"538.736","DECAY_DATE":null,"EPOCH":"2023-01-29T15:24:15.217920","SEMIMAJOR_AXIS":"6917.893","REV_AT_EPOCH":"2729","TLE_LINE2":"2 53422  53.2163 169.5562 0001477  81.6197 278.4962 15.08835832 27294","OBJECT_ID":"2022-097AL","LAUNCH_DATE":"2022-08-10","NORAD_CAT_ID":"53422","CENTER_NAME":"EARTH","TIME_SYSTEM":"UTC","MEAN_ELEMENT_THEORY":"SGP4","RA_OF_ASC_NODE":"169.5562","SITE":"AFETR","FILE":"3765015","APOAPSIS":"540.780","REF_FRAME":"TEME","INCLINATION":"53.2163"},{"BSTAR":"0.00001243700000","MEAN_MOTION":"15.08836095","ELEMENT_SET_NO":"999","GP_ID":"223959283","COUNTRY_CODE":"US","MEAN_MOTION_DOT":"-0.00000090","PERIOD":"95.438","RCS_SIZE":"LARGE","OBJECT_TYPE":"PAYLOAD","MEAN_MOTION_DDOT":"0.0000000000000","ECCENTRICITY":"0.00012700","CLASSIFICATION_TYPE":"U","EPHEMERIS_TYPE":"0","MEAN_ANOMALY":"287.8701","OBJECT_NAME":"STARLINK-4539","TLE_LINE1":"1 53423U 22097AM  23029.65288159 -.00000090  00000-0  12437-4 0  9998","FILE":"3765015","SITE":"AFETR","MEAN_ELEMENT_THEORY":"SGP4","CENTER_NAME":"EARTH","TIME_SYSTEM":"UTC","RA_OF_ASC_NODE":"169.5031","APOAPSIS":"540.636","REF_FRAME":"TEME","INCLINATION":"53.2178","DECAY_DATE":null,"ARG_OF_PERICENTER":"72.2430","PERIAPSIS":"538.879","LAUNCH_DATE":"2022-08-10","NORAD_CAT_ID":"53423","SEMIMAJOR_AXIS":"6917.892","REV_AT_EPOCH":"2727","OBJECT_ID":"2022-097AM","TLE_LINE2":"2 53423  53.2178 169.5031 0001270  72.2430 287.8701 15.08836095 27274","EPOCH":"2023-01-29T15:40:08.969376"},{"ARG_OF_PERICENTER":"87.8724","PERIAPSIS":"538.939","DECAY_DATE":null,"EPOCH":"2023-01-29T18:24:25.589376","REV_AT_EPOCH":"2731","SEMIMAJOR_AXIS":"6917.894","TLE_LINE2":"2 53424  53.2163 168.9867 0001186  87.8724 272.2404 15.08835384 27316","OBJECT_ID":"2022-097AN","LAUNCH_DATE":"2022-08-10","NORAD_CAT_ID":"53424","CENTER_NAME":"EARTH","TIME_SYSTEM":"UTC","MEAN_ELEMENT_THEORY":"SGP4","RA_OF_ASC_NODE":"168.9867","SITE":"AFETR","FILE":"3765015","APOAPSIS":"540.580","REF_FRAME":"TEME","INCLINATION":"53.2163","MEAN_MOTION_DDOT":"0.0000000000000","OBJECT_TYPE":"PAYLOAD","RCS_SIZE":"LARGE","OBJECT_NAME":"STARLINK-4532","TLE_LINE1":"1 53424U 22097AN  23029.76696284  .00000671  00000-0  60235-4 0  9996","CLASSIFICATION_TYPE":"U","MEAN_ANOMALY":"272.2404","EPHEMERIS_TYPE":"0","ECCENTRICITY":"0.00011860","ELEMENT_SET_NO":"999","GP_ID":"223959531","MEAN_MOTION":"15.08835384","BSTAR":"0.00006023500000","PERIOD":"95.438","MEAN_MOTION_DOT":"0.00000671","COUNTRY_CODE":"US"},{"DECAY_DATE":null,"ARG_OF_PERICENTER":"78.9284","PERIAPSIS":"538.854","NORAD_CAT_ID":"53425","LAUNCH_DATE":"2022-08-10","OBJECT_ID":"2022-097AP","TLE_LINE2":"2 53425  53.2160 169.5376 0001299  78.9284 281.1854 15.08837668 27262","SEMIMAJOR_AXIS":"6917.888","REV_AT_EPOCH":"2726","EPOCH":"2023-01-29T15:29:33.055008","FILE":"3765015","SITE":"AFETR","RA_OF_ASC_NODE":"169.5376","MEAN_ELEMENT_THEORY":"SGP4","TIME_SYSTEM":"UTC","CENTER_NAME":"EARTH","REF_FRAME":"TEME","INCLINATION":"53.2160","APOAPSIS":"540.651","RCS_SIZE":"LARGE","OBJECT_TYPE":"PAYLOAD","MEAN_MOTION_DDOT":"0.0000000000000","ECCENTRICITY":"0.00012990","MEAN_ANOMALY":"281.1854","EPHEMERIS_TYPE":"0","CLASSIFICATION_TYPE":"U","TLE_LINE1":"1 53425U 22097AP  23029.64552147 -.00000401  00000-0 -71002-5 0  9991","OBJECT_NAME":"STARLINK-4531","MEAN_MOTION":"15.08837668","BSTAR":"-0.00000710020000","ELEMENT_SET_NO":"999","GP_ID":"223960277","COUNTRY_CODE":"US","MEAN_MOTION_DOT":"-0.00000401","PERIOD":"95.438"},{"COUNTRY_CODE":"US","PERIOD":"95.438","MEAN_MOTION_DOT":"0.00000472","BSTAR":"0.00004772100000","MEAN_MOTION":"15.08835239","GP_ID":"223960029","ELEMENT_SET_NO":"999","ECCENTRICITY":"0.00011750","TLE_LINE1":"1 53426U 22097AQ  23029.74582121  .00000472  00000-0  47721-4 0  9994","OBJECT_NAME":"STARLINK-4558","EPHEMERIS_TYPE":"0","MEAN_ANOMALY":"287.9813","CLASSIFICATION_TYPE":"U","OBJECT_TYPE":"PAYLOAD","RCS_SIZE":"LARGE","MEAN_MOTION_DDOT":"0.0000000000000","REF_FRAME":"TEME","INCLINATION":"53.2183","APOAPSIS":"540.573","SITE":"AFETR","FILE":"3765015","RA_OF_ASC_NODE":"159.2320","CENTER_NAME":"EARTH","TIME_SYSTEM":"UTC","MEAN_ELEMENT_THEORY":"SGP4","TLE_LINE2":"2 53426  53.2183 159.2320 0001175  72.1307 287.9813 15.08835239 27449","OBJECT_ID":"2022-097AQ","SEMIMAJOR_AXIS":"6917.895","REV_AT_EPOCH":"2744","NORAD_CAT_ID":"53426","LAUNCH_DATE":"2022-08-10","EPOCH":"2023-01-29T17:53:58.952544","DECAY_DATE":null,"PERIAPSIS":"538.947","ARG_OF_PERICENTER":"72.1307"},{"SITE":"AFETR","FILE":"3765015","TIME_SYSTEM":"UTC","CENTER_NAME":"EARTH","MEAN_ELEMENT_THEORY":"SGP4","RA_OF_ASC_NODE":"168.9769","APOAPSIS":"540.502","REF_FRAME":"TEME","INCLINATION":"53.2178","DECAY_DATE":null,"PERIAPSIS":"538.969","ARG_OF_PERICENTER":"89.8912","SEMIMAJOR_AXIS":"6917.870","REV_AT_EPOCH":"2731","TLE_LINE2":"2 53427  53.2178 168.9769 0001108  89.8912 270.2207 15.08843377 27311","OBJECT_ID":"2022-097AR","LAUNCH_DATE":"2022-08-10","NORAD_CAT_ID":"53427","EPOCH":"2023-01-29T18:29:42.809568","BSTAR":"0.00009828300000","MEAN_MOTION":"15.08843377","GP_ID":"223958786","ELEMENT_SET_NO":"999","COUNTRY_CODE":"US","PERIOD":"95.437","MEAN_MOTION_DOT":"0.00001277","OBJECT_TYPE":"PAYLOAD","RCS_SIZE":"LARGE","MEAN_MOTION_DDOT":"0.0000000000000","ECCENTRICITY":"0.00011080","OBJECT_NAME":"STARLINK-4541","TLE_LINE1":"1 53427U 22097AR  23029.77063437  .00001277  00000-0  98283-4 0  9995","CLASSIFICATION_TYPE":"U","MEAN_ANOMALY":"270.2207","EPHEMERIS_TYPE":"0"},{"MEAN_MOTION":"15.08834536","BSTAR":"0.00003023800000","ELEMENT_SET_NO":"999","GP_ID":"223959035","COUNTRY_CODE":"US","PERIOD":"95.438","MEAN_MOTION_DOT":"0.00000194","OBJECT_TYPE":"PAYLOAD","RCS_SIZE":"LARGE","MEAN_MOTION_DDOT":"0.0000000000000","ECCENTRICITY":"0.00008750","OBJECT_NAME":"STARLINK-4540","TLE_LINE1":"1 53428U 22097AS  23029.67220904  .00000194  00000-0  30238-4 0  9992","CLASSIFICATION_TYPE":"U","MEAN_ANOMALY":"269.3012","EPHEMERIS_TYPE":"0","SITE":"AFETR","FILE":"3765015","TIME_SYSTEM":"UTC","MEAN_ELEMENT_THEORY":"SGP4","CENTER_NAME":"EARTH","RA_OF_ASC_NODE":"159.4873","APOAPSIS":"540.367","REF_FRAME":"TEME","INCLINATION":"53.2171","DECAY_DATE":null,"PERIAPSIS":"539.157","ARG_OF_PERICENTER":"90.8080","SEMIMAJOR_AXIS":"6917.897","REV_AT_EPOCH":"2743","TLE_LINE2":"2 53428  53.2171 159.4873 0000875  90.8080 269.3012 15.08834536 27437","OBJECT_ID":"2022-097AS","LAUNCH_DATE":"2022-08-10","NORAD_CAT_ID":"53428","EPOCH":"2023-01-29T16:07:58.861056"}];
